{"type": "FeatureCollection", "features": [ {"type": "Feature", "properties": {"norad_id": 41774, "name": "SKYSAT-C3", "group": "resource", "lat": -26.83426928402952, "lon": -164.2685410315569, "alt_km": 439.465676024206, "timestamp": "2025-12-11T10:53:15.542328+00:00", "meta": {"OBJECT_NAME": "SKYSAT-C3", "OBJECT_ID": "2016-058E", "EPOCH": "2025-12-11T02:13:07.879584", "MEAN_MOTION": 15.44300229, "ECCENTRICITY": 0.0001616, "INCLINATION": 96.9302, "RA_OF_ASC_NODE": 18.9149, "ARG_OF_PERICENTER": 106.2091, "MEAN_ANOMALY": 253.9336, "EPHEMERIS_TYPE": 0, "CLASSIFICATION_TYPE": "U", "NORAD_CAT_ID": 41774, "ELEMENT_SET_NO": 999, "REV_AT_EPOCH": 51700, "BSTAR": 0.00056526, "MEAN_MOTION_DOT": 0.00025995, "MEAN_MOTION_DDOT": 0}, "tle": {"line1": "1 41774U 16058E   25345.09245231  .00025995  00000+0  56526-3 0  9994", "line2": "2 41774  96.9302  18.9149 0001616 106.2091 253.9336 15.44300229517003"}}, "geometry": {"type": "Point", "coordinates": [-164.2685410315569, -26.83426928402952]}}, {"type": "Feature", "properties": {"norad_id": 41785, "name": "ALSAT 1B", "group": "resource", "lat": 38.862097853514705, "lon": -9.02772490215915, "alt_km": 648.6416540418422, "timestamp": "2025-12-11T10:53:15.542339+00:00", "meta": {"OBJECT_NAME": "ALSAT 1B", "OBJECT_ID": "2016-059C", "EPOCH": "2025-12-11T04:11:03.796800", "MEAN_MOTION": 14.72072318, "ECCENTRICITY": 0.001066, "INCLINATION": 97.7815, "RA_OF_ASC_NODE": 357.0313, "ARG_OF_PERICENTER": 107.5236, "MEAN_ANOMALY": 252.7138, "EPHEMERIS_TYPE": 0, "CLASSIFICATION_TYPE": "U", "NORAD_CAT_ID": 41785, "ELEMENT_SET_NO": 999, "REV_AT_EPOCH": 49291, "BSTAR": 0.0001043, "MEAN_MOTION_DOT": 6.09e-06, "MEAN_MOTION_DDOT": 0}, "tle": {"line1": "1 41785U 16059C   25345.17434950  .00000609  00000+0  10430-3 0  9993", "line2": "2 41785  97.7815 357.0313 0010660 107.5236 252.7138 14.72072318492911"}}, "geometry": {"type": "Point", "coordinates": [-9.02772490215915, 38.862097853514705]}}, {"type": "Feature", "properties": {"norad_id": 41787, "name": "PATHFINDER 1", "group": "resource", "lat": 39.13072077421862, "lon": 174.70140591488132, "alt_km": 654.5877773018155, "timestamp": "2025-12-11T10:53:15.542349+00:00", "meta": {"OBJECT_NAME": "PATHFINDER 1", "OBJECT_ID": "2016-059E", "EPOCH": "2025-12-11T00:25:59.733408", "MEAN_MOTION": 14.67315928, "ECCENTRICITY": 0.0030054, "INCLINATION": 97.8139, "RA_OF_ASC_NODE": 347.8715, "ARG_OF_PERICENTER": 86.425, "MEAN_ANOMALY": 274.0391, "EPHEMERIS_TYPE": 0, "CLASSIFICATION_TYPE": "U", "NORAD_CAT_ID": 41787, "ELEMENT_SET_NO": 999, "REV_AT_EPOCH": 49211, "BSTAR": 0.00022273, "MEAN_MOTION_DOT": 1.219e-05, "MEAN_MOTION_DDOT": 0}, "tle": {"line1": "1 41787U 16059E   25345.01805247  .00001219  00000+0  22273-3 0  9995", "line2": "2 41787  97.8139 347.8715 0030054  86.4250 274.0391 14.67315928492117"}}, "geometry": {"type": "Point", "coordinates": [174.70140591488132, 39.13072077421862]}}, {"type": "Feature", "properties": {"norad_id": 41790, "name": "SCATSAT 1", "group": "resource", "lat": 75.83106347347713, "lon": 7.539491399101147, "alt_km": 602.0144701870204, "timestamp": "2025-12-11T10:53:15.542360+00:00", "meta": {"OBJECT_NAME": "SCATSAT 1", "OBJECT_ID": "2016-059H", "EPOCH": "2025-12-11T04:02:21.458688", "MEAN_MOTION": 14.78927983, "ECCENTRICITY": 0.0056204, "INCLINATION": 98.1464, "RA_OF_ASC_NODE": 41.8188, "ARG_OF_PERICENTER": 132.9642, "MEAN_ANOMALY": 227.6302, "EPHEMERIS_TYPE": 0, "CLASSIFICATION_TYPE": "U", "NORAD_CAT_ID": 41790, "ELEMENT_SET_NO": 999, "REV_AT_EPOCH": 7379, "BSTAR": 0.00034488, "MEAN_MOTION_DOT": 2.555e-05, "MEAN_MOTION_DDOT": 0}, "tle": {"line1": "1 41790U 16059H   25345.16830392  .00002555  00000+0  34488-3 0  9999", "line2": "2 41790  98.1464  41.8188 0056204 132.9642 227.6302 14.78927983 73795"}}, "geometry": {"type": "Point", "coordinates": [7.539491399101147, 75.83106347347713]}}, {"type": "Feature", "properties": {"norad_id": 41875, "name": "GOKTURK 1A", "group": "resource", "lat": -57.352170291634344, "lon": 44.92353835273586, "alt_km": 692.1396319585483, "timestamp": "2025-12-11T10:53:15.542372+00:00", "meta": {"OBJECT_NAME": "GOKTURK 1A", "OBJECT_ID": "2016-073A", "EPOCH": "2025-12-11T04:52:36.919776", "MEAN_MOTION": 14.62777045, "ECCENTRICITY": 0.0001252, "INCLINATION": 98.1424, "RA_OF_ASC_NODE": 237.5888, "ARG_OF_PERICENTER": 78.3668, "MEAN_ANOMALY": 281.7674, "EPHEMERIS_TYPE": 0, "CLASSIFICATION_TYPE": "U", "NORAD_CAT_ID": 41875, "ELEMENT_SET_NO": 999, "REV_AT_EPOCH": 48134, "BSTAR": 0.00019413, "MEAN_MOTION_DOT": 9.43e-06, "MEAN_MOTION_DDOT": 0}, "tle": {"line1": "1 41875U 16073A   25345.20320509  .00000943  00000+0  19413-3 0  9998", "line2": "2 41875  98.1424 237.5888 0001252  78.3668 281.7674 14.62777045481342"}}, "geometry": {"type": "Point", "coordinates": [44.92353835273586, -57.352170291634344]}}, {"type": "Feature", "properties": {"norad_id": 41877, "name": "RESOURCESAT-2A", "group": "resource", "lat": 61.269389313328126, "lon": -108.31710639613294, "alt_km": 814.6226053930823, "timestamp": "2025-12-11T10:53:15.542383+00:00", "meta": {"OBJECT_NAME": "RESOURCESAT-2A", "OBJECT_ID": "2016-074A", "EPOCH": "2025-12-11T05:16:10.524000", "MEAN_MOTION": 14.21597827, "ECCENTRICITY": 0.000113, "INCLINATION": 98.7753, "RA_OF_ASC_NODE": 55.0838, "ARG_OF_PERICENTER": 262.6496, "MEAN_ANOMALY": 97.4553, "EPHEMERIS_TYPE": 0, "CLASSIFICATION_TYPE": "U", "NORAD_CAT_ID": 41877, "ELEMENT_SET_NO": 999, "REV_AT_EPOCH": 46759, "BSTAR": 1.9333e-05, "MEAN_MOTION_DOT": -2e-08, "MEAN_MOTION_DDOT": 0}, "tle": {"line1": "1 41877U 16074A   25345.21956625 -.00000002  00000+0  19333-4 0  9995", "line2": "2 41877  98.7753  55.0838 0001130 262.6496  97.4553 14.21597827467597"}}, "geometry": {"type": "Point", "coordinates": [-108.31710639613294, 61.269389313328126]}}, {"type": "Feature", "properties": {"norad_id": 41948, "name": "CARTOSAT-2D", "group": "resource", "lat": 31.97909626720585, "lon": 38.290932071273666, "alt_km": 508.5702488504421, "timestamp": "2025-12-11T10:53:15.542394+00:00", "meta": {"OBJECT_NAME": "CARTOSAT-2D", "OBJECT_ID": "2017-008A", "EPOCH": "2025-12-11T04:25:22.387296", "MEAN_MOTION": 15.19232405, "ECCENTRICITY": 0.0004507, "INCLINATION": 97.4383, "RA_OF_ASC_NODE": 42.7046, "ARG_OF_PERICENTER": 168.3002, "MEAN_ANOMALY": 191.8338, "EPHEMERIS_TYPE": 0, "CLASSIFICATION_TYPE": "U", "NORAD_CAT_ID": 41948, "ELEMENT_SET_NO": 999, "REV_AT_EPOCH": 48903, "BSTAR": 0.00041795, "MEAN_MOTION_DOT": 8.742e-05, "MEAN_MOTION_DDOT": 0}, "tle": {"line1": "1 41948U 17008A   25345.18428689  .00008742  00000+0  41795-3 0  9996", "line2": "2 41948  97.4383  42.7046 0004507 168.3002 191.8338 15.19232405489030"}}, "geometry": {"type": "Point", "coordinates": [38.290932071273666, 31.97909626720585]}}, {"type": "Feature", "properties": {"norad_id": 42063, "name": "SENTINEL-2B", "group": "resource", "lat": 42.71496777943079, "lon": 49.912905041068115, "alt_km": 784.9281505008503, "timestamp": "2025-12-11T10:53:15.542405+00:00", "meta": {"OBJECT_NAME": "SENTINEL-2B", "OBJECT_ID": "2017-013A", "EPOCH": "2025-12-11T03:58:21.374688", "MEAN_MOTION": 14.30815043, "ECCENTRICITY": 0.0001137, "INCLINATION": 98.5712, "RA_OF_ASC_NODE": 57.633, "ARG_OF_PERICENTER": 94.0003, "MEAN_ANOMALY": 266.131, "EPHEMERIS_TYPE": 0, "CLASSIFICATION_TYPE": "U", "NORAD_CAT_ID": 42063, "ELEMENT_SET_NO": 999, "REV_AT_EPOCH": 45775, "BSTAR": 9.3405e-05, "MEAN_MOTION_DOT": 2.01e-06, "MEAN_MOTION_DDOT": 0}, "tle": {"line1": "1 42063U 17013A   25345.16552517  .00000201  00000+0  93405-4 0  9995", "line2": "2 42063  98.5712  57.6330 0001137  94.0003 266.1310 14.30815043457757"}}, "geometry": {"type": "Point", "coordinates": [49.912905041068115, 42.71496777943079]}}, {"type": "Feature", "properties": {"norad_id": 42767, "name": "CARTOSAT-2E", "group": "resource", "lat": -55.77404001699603, "lon": 54.15561548120701, "alt_km": 514.2742239552008, "timestamp": "2025-12-11T10:53:15.542417+00:00", "meta": {"OBJECT_NAME": "CARTOSAT-2E", "OBJECT_ID": "2017-036C", "EPOCH": "2025-12-11T04:48:47.515680", "MEAN_MOTION": 15.19294702, "ECCENTRICITY": 0.0002406, "INCLINATION": 97.4553, "RA_OF_ASC_NODE": 42.8071, "ARG_OF_PERICENTER": 242.5315, "MEAN_ANOMALY": 117.5675, "EPHEMERIS_TYPE": 0, "CLASSIFICATION_TYPE": "U", "NORAD_CAT_ID": 42767, "ELEMENT_SET_NO": 999, "REV_AT_EPOCH": 46960, "BSTAR": 0.0003018, "MEAN_MOTION_DOT": 6.302e-05, "MEAN_MOTION_DDOT": 0}, "tle": {"line1": "1 42767U 17036C   25345.20054995  .00006302  00000+0  30180-3 0  9991", "line2": "2 42767  97.4553  42.8071 0002406 242.5315 117.5675 15.19294702469604"}}, "geometry": {"type": "Point", "coordinates": [54.15561548120701, -55.77404001699603]}}, {"type": "Feature", "properties": {"norad_id": 42920, "name": "FORMOSAT-5", "group": "resource", "lat": -47.230850062459176, "lon": 68.81713118926191, "alt_km": 722.2640040072147, "timestamp": "2025-12-11T10:53:15.542449+00:00", "meta": {"OBJECT_NAME": "FORMOSAT-5", "OBJECT_ID": "2017-049A", "EPOCH": "2025-12-11T04:29:15.332064", "MEAN_MOTION": 14.51003887, "ECCENTRICITY": 0.0009945, "INCLINATION": 98.2454, "RA_OF_ASC_NODE": 59.5368, "ARG_OF_PERICENTER": 300.8229, "MEAN_ANOMALY": 59.1987, "EPHEMERIS_TYPE": 0, "CLASSIFICATION_TYPE": "U", "NORAD_CAT_ID": 42920, "ELEMENT_SET_NO": 999, "REV_AT_EPOCH": 43941, "BSTAR": 0.00010712, "MEAN_MOTION_DOT": 3.8e-06, "MEAN_MOTION_DDOT": 0}, "tle": {"line1": "1 42920U 17049A   25345.18698301  .00000380  00000+0  10712-3 0  9997", "line2": "2 42920  98.2454  59.5368 0009945 300.8229  59.1987 14.51003887439415"}}, "geometry": {"type": "Point", "coordinates": [68.81713118926191, -47.230850062459176]}}]}